#dP2019  6 14  0  0  0.00000000      96 __u+U ITR00 FIT  IAC
## 2057 432000.00000000   900.00000000 58648 0.0000000000000
+  100   C01C02C03C04C05C06C07C08C09C10C11C12C13C14C16E01E02
+        E03E04E05E07E08E09E11E12E13E14E15E18E19E21E24E25E26
+        E27E30E31E33E36G01G02G03G04G05G06G07G08G09G10G11G12
+        G13G14G15G16G17G18G19G20G21G22G23G24G25G26G27G28G29
+        G30G31G32J01J02J03J07R01R02R03R04R05R06R07R08R09R10
+        R11R12R13R14R15R16R17R18R19R20R21R22R23R24R26  0  0
++        13 13 13 13 13  9  9  9  8  8  8  8  9  8  9  5  5
++         5  4  5  5  5  5  5  5  5  5  5  5  5  5  5  5  5
++         5  5  5  5  5  3  3  3  0  3  3  3  3  3  3  3  3
++         3  3  3  3  3  3  3  3  3  3  3  3  3  3  3  3  3
++         3  3  3  9  9  9 15  5  6  6  5  5  8  5  5  5  5
++         5  8  6  5  5  6  5  5  6  6  5  5  5  6  8  0  0
%c M  cc GPS ccc cccc cccc cccc cccc ccccc ccccc ccccc ccccc
%c cc cc ccc ccc cccc cccc cccc cccc ccccc ccccc ccccc ccccc
%f  0.0000000  0.000000000  0.00000000000  0.000000000000000
%f  0.0000000  0.000000000  0.00000000000  0.000000000000000
%i    0    0    0    0      0      0      0      0         0
%i    0    0    0    0      0      0      0      0         0
/* INFORMATION & ANALYSIS CENTER (IAC) OF MCC   (RAPID DATA)
/* S/V CLOCKS ARE ALIGNED TO GPS & GLONASS TIME RESPECTIVELY
/* USING THE BROADCAST EPHEMERIS                            
/* PCV:IGS14_2056 OL/AL:FES2004  NONE     YN ORB:CoN CLK:CoN
*  2019 06 14  7  0  0.00000000
PC01 -32334.629497  27035.752950    520.848423    710.985376
PC02   4355.843073  41947.775872    207.344860     97.705166
PC03 -14841.012630  39444.009674    643.492837    532.728423
PC04 -39612.314503  14417.760675    505.565052   -203.156998
PC05  21874.759030  36025.177900     55.301382   -252.797722
PC06 -21159.063461  21474.633048 -29283.055735    900.709236
PC07 -19545.345489  36990.965861  -2258.059089    144.307024
PC08  -4625.876936  28276.314920  31124.190917    165.057208
PC09  -2441.704312  24361.324066 -34095.421788    840.746519
PC10  -7289.875296  39311.316716  12883.359835   -842.844017
PC11 -23969.073592 -13404.649116  -4732.354454    278.047402
PC12   1188.567983 -15827.717710 -22885.113568    763.379444
PC13   6604.952097  36054.709510  21105.352406   -776.300148
PC14  -6966.675828 -14799.792382  22674.514290    566.268894
PC16 -17230.704820  22404.998669 -31298.828741   -919.459635
PE01  15105.213028 -21354.734436  13860.904673   -625.856351
PE02 -15088.004208  21392.639413 -13822.341580     64.755247
PE03 -23719.406620  14192.254669 -10560.221505   -177.167556
PE04   5228.443439 -18192.832346  22769.563287   -302.501565
PE05 -28457.592052   1839.168619   7937.871086   -475.221953
PE07  16542.025609  11503.131726 -21673.200458   -206.947009
PE08  -4992.162405  18081.412166 -22883.535462   6340.074622
PE09 -16596.664120 -11257.348480  21779.200717   6409.304349
PE11 -20279.568039 -21497.811538  -1867.225904   5677.167605
PE12  -4739.413550 -22226.975782 -18976.693390   6347.362606
PE13  20304.512413  21437.979927   2010.121216    388.512787
PE14   4607.485423 -20234.977805 -25176.051822   -604.754097
PE15   5198.205746  22261.198112  18804.056301    906.891040
PE18  -3883.281146  14353.000574  17969.557758   -701.279218
PE19  24914.458630 -13284.244559   8897.374831     -5.779805
PE21  16868.629378  -1128.244709  24293.565056   -538.984810
PE24  -8824.005427 -19483.890778 -20469.209444   6029.380161
PE25 -16854.034065   1036.584943 -24307.696174   1773.688500
PE26  23559.078399   8126.909242 -15970.734526   4455.303165
PE27   8697.600840  19698.833754  20308.259195    449.573412
PE30  -4566.879368  28878.079544   4623.154394   4791.558602
PE31   4564.903362 -28917.785168  -4404.753707   -465.607050
PE33  12977.784544 -10057.872763 -24625.236939   -469.949824
PE36 -23561.296021  -8050.273498  16016.316594    699.931930
PG01 -17022.990208  -4750.836000  19740.967231    -40.726109
PG02  14627.618208  22002.936566  -2801.509790   -236.945667
PG03 -18927.773732   6088.304215  17526.615478    185.594194
PG04      0.000000      0.000000      0.000000 999999.999999
PG05   9069.104015  13650.569950 -20986.897094      0.543312
PG06   5075.429647  24463.383318   9002.254949    178.379970
PG07 -11520.291261  10623.854341 -21120.360259    -44.142784
PG08 -25453.452705  -5500.404838  -5734.755560   -147.372023
PG09 -20189.336356   9209.801335 -14640.810636    391.939691
PG10   9950.082606 -23479.870078   7108.167773     16.605257
PG11 -22323.098595  -5342.935502  12613.919785   -584.882778
PG12  18370.655144  -3284.560132  18613.787157    233.307066
PG13  19537.984519  12870.911726 -12727.799707    -59.141755
PG14  -5364.751349 -15750.512565  21065.872904    -76.151176
PG15  26111.294306   3336.895434  -5132.594610   -307.156445
PG16  -7669.386822 -13467.578467 -21692.667957    -47.953398
PG17  -4221.270725  14410.049108  22310.490042     71.447449
PG18 -18219.501247 -13280.374051  13647.583529     61.781239
PG19   3728.763208  15067.000398  21237.240603   -306.797193
PG20  14146.487270 -22162.330128  -3216.735929    525.370995
PG21   6521.396817 -16419.452059 -19089.485466   -173.531844
PG22 -16937.439606  -1602.427581  20613.892084   -716.738490
PG23 -26558.711841    703.649121  -3003.488759   -181.852651
PG24  18590.788568   7256.483010  17527.520787    -67.440383
PG25  18849.911596 -15600.147685   9800.085581   -765.534147
PG26   -119.079745 -21039.154622 -16123.303367    226.530382
PG27 -17828.113669 -12026.444649 -15894.582738   -157.468564
PG28 -11928.957576  22674.679692   7789.722409    767.458410
PG29  23282.546210  -4699.191531 -11934.920823    176.860812
PG30  -4376.239970  20242.762537 -16499.075811   -123.573041
PG31  -5431.870407 -24703.836784   7309.695711     31.218814
PG32   2285.986565 -15201.022892  21716.940665    -44.357732
PJ01 -34932.976726  23520.616583   2871.882778   -288.241731
PJ02 -19615.918758  30092.649347 -17532.669802     -0.308259
PJ03 -29030.168990  23854.950523  24319.485120      0.878845
PJ07 -25416.444644  33634.192183    -25.268879     -0.019492
PR01  22912.946126  -8245.709230  -7615.736608     45.302448
PR02  16116.665571 -15137.702340  12717.980668    373.435674
PR03   -328.747047 -11980.672345  22557.397878     -3.302972
PR04 -16905.074122  -1424.295844  19076.769098    310.049627
PR05 -23165.512337   9306.657064   5298.653122     30.011992
PR06 -15156.605762  15616.387136 -13329.630324    156.250864
PR07    744.857684  11767.276188 -22582.175670    -21.741617
PR08  16363.554307   1918.327702 -19412.423135     17.262886
PR09  -5099.550204  23528.362199  -8313.055015     74.955249
PR10   1890.324310  24411.323604   6977.147478     52.116928
PR11   9505.532334  11369.294725  20760.325716    -69.386160
PR12  10826.076657  -4592.672187  22618.603113    -45.471216
PR13   5559.185170 -22698.176130  10218.780987    -24.870041
PR14  -2273.292625 -24405.005166  -7087.590440     39.931366
PR15  -9075.811254 -12307.176845 -20397.798518    102.523686
PR16 -10741.335851   7430.065790 -21954.727130      8.570210
PR17 -11131.354502 -16067.987218 -16364.845631    235.615442
PR18 -21282.116348 -14102.646686   -698.515079     -3.326448
PR19 -19762.170844  -5067.191026  15308.271618    -36.200871
PR20  -5883.197711   8610.672396  23281.178343   -381.192822
PR21  11746.193760  16140.050293  15890.395917    -53.878180
PR22  21750.182283  13031.839518  -2085.609017    -23.853553
PR23  17012.965818    838.717643 -18997.569026    234.285699
PR24   3968.804558  -9884.894912 -23207.598126   -181.523098
PR26  -8269.944438   7037.863116  23087.007776     -6.991210
EOF
